{
  "type": "FeatureCollection",
  "features": [
    {
      "type": "Feature",
      "properties": {
        "norad_id": 33913,
        "name": "COSMOS 2251 DEB",
        "group": "cosmos-2251-debris",
        "lat": -67.38525184560602,
        "lon": 26.06951460862156,
        "alt_km": 703.5648037727688,
        "timestamp": "2025-12-23T22:42:33.378734+00:00",
        "meta_object_name": "COSMOS 2251 DEB",
        "meta_object_id": "1993-036DS",
        "meta_epoch": "2025-12-23T05:47:38.756256",
        "meta_mean_motion": 14.48526475,
        "meta_eccentricity": 0.00481639,
        "meta_inclination": 74.0323,
        "meta_ra_of_asc_node": 163.9692,
        "meta_arg_of_pericenter": 264.5955,
        "meta_mean_anomaly": 275.4201,
        "meta_ephemeris_type": 0,
        "meta_classification_type": "U",
        "meta_norad_cat_id": 33913,
        "meta_element_set_no": 999,
        "meta_rev_at_epoch": 88609,
        "meta_bstar": 0.00051309033,
        "meta_mean_motion_dot": 1.927e-05,
        "meta_mean_motion_ddot": 0,
        "tle_line1": "1 33913U 93036DS  25357.24142079  .00001927  00000+0  51309-3 0  9990",
        "tle_line2": "2 33913  74.0323 163.9692 0048163 264.5955 275.4201 14.48526475886092"
      },
      "geometry": {
        "type": "Point",
        "coordinates": [
          26.06951460862156,
          -67.38525184560602
        ]
      }
    },
    {
      "type": "Feature",
      "properties": {
        "norad_id": 33914,
        "name": "COSMOS 2251 DEB",
        "group": "cosmos-2251-debris",
        "lat": 11.818619748172388,
        "lon": 0.0481152715761539,
        "alt_km": 965.6680101642505,
        "timestamp": "2025-12-23T22:42:33.378745+00:00",
        "meta_object_name": "COSMOS 2251 DEB",
        "meta_object_id": "1993-036DT",
        "meta_epoch": "2025-12-23T01:55:15.993408",
        "meta_mean_motion": 13.71990699,
        "meta_eccentricity": 0.03008091,
        "meta_inclination": 74.0911,
        "meta_ra_of_asc_node": 358.0537,
        "meta_arg_of_pericenter": 98.5842,
        "meta_mean_anomaly": 320.6967,
        "meta_ephemeris_type": 0,
        "meta_classification_type": "U",
        "meta_norad_cat_id": 33914,
        "meta_element_set_no": 999,
        "meta_rev_at_epoch": 84223,
        "meta_bstar": 0.00023617071,
        "meta_mean_motion_dot": 2.77e-06,
        "meta_mean_motion_ddot": 0,
        "tle_line1": "1 33914U 93036DT  25357.08004622  .00000277  00000+0  23617-3 0  9992",
        "tle_line2": "2 33914  74.0911 358.0537 0300809  98.5842 320.6967 13.71990699842237"
      },
      "geometry": {
        "type": "Point",
        "coordinates": [
          0.0481152715761539,
          11.818619748172388
        ]
      }
    },
    {
      "type": "Feature",
      "properties": {
        "norad_id": 33915,
        "name": "COSMOS 2251 DEB",
        "group": "cosmos-2251-debris",
        "lat": 17.091935428133013,
        "lon": -171.4778108519283,
        "alt_km": 735.9481998212495,
        "timestamp": "2025-12-23T22:42:33.378755+00:00",
        "meta_object_name": "COSMOS 2251 DEB",
        "meta_object_id": "1993-036DU",
        "meta_epoch": "2025-12-23T00:18:33.427296",
        "meta_mean_motion": 14.35104776,
        "meta_eccentricity": 0.01040199,
        "meta_inclination": 74.043,
        "meta_ra_of_asc_node": 15.2793,
        "meta_arg_of_pericenter": 105.0476,
        "meta_mean_anomaly": 276.0148,
        "meta_ephemeris_type": 0,
        "meta_classification_type": "U",
        "meta_norad_cat_id": 33915,
        "meta_element_set_no": 999,
        "meta_rev_at_epoch": 87905,
        "meta_bstar": 0.00032732838,
        "meta_mean_motion_dot": 9.67e-06,
        "meta_mean_motion_ddot": 0,
        "tle_line1": "1 33915U 93036DU  25357.01288689  .00000967  00000+0  32733-3 0  9998",
        "tle_line2": "2 33915  74.0430  15.2793 0104019 105.0476 276.0148 14.35104776879051"
      },
      "geometry": {
        "type": "Point",
        "coordinates": [
          -171.4778108519283,
          17.091935428133013
        ]
      }
    },
    {
      "type": "Feature",
      "properties": {
        "norad_id": 33916,
        "name": "COSMOS 2251 DEB",
        "group": "cosmos-2251-debris",
        "lat": 35.06032756569048,
        "lon": -169.4002823900109,
        "alt_km": 839.0987744234371,
        "timestamp": "2025-12-23T22:42:33.378765+00:00",
        "meta_object_name": "COSMOS 2251 DEB",
        "meta_object_id": "1993-036DV",
        "meta_epoch": "2025-12-23T04:49:03.383040",
        "meta_mean_motion": 13.6862451,
        "meta_eccentricity": 0.03248799,
        "meta_inclination": 74.052,
        "meta_ra_of_asc_node": 23.3999,
        "meta_arg_of_pericenter": 193.3036,
        "meta_mean_anomaly": 241.0182,
        "meta_ephemeris_type": 0,
        "meta_classification_type": "U",
        "meta_norad_cat_id": 33916,
        "meta_element_set_no": 999,
        "meta_rev_at_epoch": 84034,
        "meta_bstar": 0.00031326001,
        "meta_mean_motion_dot": 3.67e-06,
        "meta_mean_motion_ddot": 0,
        "tle_line1": "1 33916U 93036DV  25357.20073360  .00000367  00000+0  31326-3 0  9999",
        "tle_line2": "2 33916  74.0520  23.3999 0324879 193.3036 241.0182 13.68624510840348"
      },
      "geometry": {
        "type": "Point",
        "coordinates": [
          -169.4002823900109,
          35.06032756569048
        ]
      }
    },
    {
      "type": "Feature",
      "properties": {
        "norad_id": 33917,
        "name": "COSMOS 2251 DEB",
        "group": "cosmos-2251-debris",
        "lat": -68.33395655891152,
        "lon": -30.161235651780288,
        "alt_km": 854.9609537468295,
        "timestamp": "2025-12-23T22:42:33.378775+00:00",
        "meta_object_name": "COSMOS 2251 DEB",
        "meta_object_id": "1993-036DW",
        "meta_epoch": "2025-12-23T07:26:53.640384",
        "meta_mean_motion": 13.6938158,
        "meta_eccentricity": 0.03312166,
        "meta_inclination": 74.1071,
        "meta_ra_of_asc_node": 105.0613,
        "meta_arg_of_pericenter": 203.7264,
        "meta_mean_anomaly": 154.8283,
        "meta_ephemeris_type": 0,
        "meta_classification_type": "U",
        "meta_norad_cat_id": 33917,
        "meta_element_set_no": 999,
        "meta_rev_at_epoch": 83878,
        "meta_bstar": 0.00083836562,
        "meta_mean_motion_dot": 1.049e-05,
        "meta_mean_motion_ddot": 0,
        "tle_line1": "1 33917U 93036DW  25357.31034306  .00001049  00000+0  83837-3 0  9991",
        "tle_line2": "2 33917  74.1071 105.0613 0331216 203.7264 154.8283 13.69381580838780"
      },
      "geometry": {
        "type": "Point",
        "coordinates": [
          -30.161235651780288,
          -68.33395655891152
        ]
      }
    },
    {
      "type": "Feature",
      "properties": {
        "norad_id": 33920,
        "name": "COSMOS 2251 DEB",
        "group": "cosmos-2251-debris",
        "lat": -37.04819346006575,
        "lon": -95.32708250848677,
        "alt_km": 683.5040668860838,
        "timestamp": "2025-12-23T22:42:33.378786+00:00",
        "meta_object_name": "COSMOS 2251 DEB",
        "meta_object_id": "1993-036DZ",
        "meta_epoch": "2025-12-23T01:29:04.163136",
        "meta_mean_motion": 14.58425135,
        "meta_eccentricity": 0.00378205,
        "meta_inclination": 74.0612,
        "meta_ra_of_asc_node": 278.8111,
        "meta_arg_of_pericenter": 283.8425,
        "meta_mean_anomaly": 75.8533,
        "meta_ephemeris_type": 0,
        "meta_classification_type": "U",
        "meta_norad_cat_id": 33920,
        "meta_element_set_no": 999,
        "meta_rev_at_epoch": 88265,
        "meta_bstar": 0.001742781,
        "meta_mean_motion_dot": 8.141e-05,
        "meta_mean_motion_ddot": 0,
        "tle_line1": "1 33920U 93036DZ  25357.06185374  .00008141  00000+0  17428-2 0  9991",
        "tle_line2": "2 33920  74.0612 278.8111 0037820 283.8425  75.8533 14.58425135882657"
      },
      "geometry": {
        "type": "Point",
        "coordinates": [
          -95.32708250848677,
          -37.04819346006575
        ]
      }
    },
    {
      "type": "Feature",
      "properties": {
        "norad_id": 33922,
        "name": "COSMOS 2251 DEB",
        "group": "cosmos-2251-debris",
        "lat": 67.04233029578135,
        "lon": -95.72380868486047,
        "alt_km": 730.644687679488,
        "timestamp": "2025-12-23T22:42:33.378796+00:00",
        "meta_object_name": "COSMOS 2251 DEB",
        "meta_object_id": "1993-036EB",
        "meta_epoch": "2025-12-22T20:27:48.551328",
        "meta_mean_motion": 14.49542252,
        "meta_eccentricity": 0.00231516,
        "meta_inclination": 74.0469,
        "meta_ra_of_asc_node": 128.8012,
        "meta_arg_of_pericenter": 238.3106,
        "meta_mean_anomaly": 284.2468,
        "meta_ephemeris_type": 0,
        "meta_classification_type": "U",
        "meta_norad_cat_id": 33922,
        "meta_element_set_no": 999,
        "meta_rev_at_epoch": 88724,
        "meta_bstar": 0.00043668701,
        "meta_mean_motion_dot": 1.653e-05,
        "meta_mean_motion_ddot": 0,
        "tle_line1": "1 33922U 93036EB  25356.85264527  .00001653  00000+0  43669-3 0  9995",
        "tle_line2": "2 33922  74.0469 128.8012 0023151 238.3106 284.2468 14.49542252887249"
      },
      "geometry": {
        "type": "Point",
        "coordinates": [
          -95.72380868486047,
          67.04233029578135
        ]
      }
    }
  ]
}